NORAD_CAT_ID,OBJECT_NAME,OBJECT_TYPE,EPOCH,MEAN_MOTION,ECCENTRICITY,INCLINATION,RA_OF_ASC_NODE,ARG_OF_PERICENTER,MEAN_ANOMALY,BSTAR,MEAN_MOTION_DOT,MEAN_MOTION_DDOT,TLE_LINE0,TLE_LINE1,TLE_LINE2,SEMIMAJOR_AXIS,PERIOD,APOGEE,PERIGEE,DECAYED
52846.0,STARLINK-4212,PAYLOAD,2023-07-27 13:11:49,15.08827733,8.39e-05,53.2176,6.4088,83.6116,276.4971,-8.679e-05,-1.668e-05,0.0,0 STARLINK-4212,1 52846U 22062S   23208.54987664 -.00001668  00000-0 -86790-4 0  9998,2 52846  53.2176   6.4088 0000839  83.6116 276.4971 15.08827733 61447,6917.918,95.438,540.363,539.202,0.0
52846.0,STARLINK-4212,PAYLOAD,2023-07-28 03:30:17,15.08836886,9.2e-05,53.2174,3.733,75.7782,284.3312,3.9991e-05,3.49e-06,0.0,0 STARLINK-4212,1 52846U 22062S   23209.14603538  .00000349  00000-0  39991-4 0  9994,2 52846  53.2174   3.7330 0000920  75.7782 284.3312 15.08836886 62028,6917.89,95.438,540.391,539.118,0.0
52846.0,STARLINK-4212,PAYLOAD,2023-07-28 13:02:36,15.08839455,0.0001077,53.2178,1.9456,77.4893,282.6219,9.9036e-05,1.289e-05,0.0,0 STARLINK-4212,1 52846U 22062S   23209.54347534  .00001289  00000-0  99036-4 0  9999,2 52846  53.2178   1.9456 0001077  77.4893 282.6219 15.08839455 61590,6917.882,95.438,540.492,539.002,0.0
52846.0,STARLINK-4212,PAYLOAD,2023-07-29 09:42:37,15.0884523,0.0001634,53.2149,358.0832,73.0163,287.1009,0.00031221,4.685e-05,0.0,0 STARLINK-4212,1 52846U 22062S   23210.40459779  .00004685  00000-0  31221-3 0  9995,2 52846  53.2149 358.0832 0001634  73.0163 287.1009 15.08845230 62218,6917.864,95.437,540.86,538.599,0.0
52846.0,STARLINK-4212,PAYLOAD,2023-07-29 16:04:09,15.08839702,9.62e-05,53.2167,356.8936,69.878,290.2316,0.00022841,3.349e-05,0.0,0 STARLINK-4212,1 52846U 22062S   23210.66955899  .00003349  00000-0  22841-3 0  9991,2 52846  53.2167 356.8936 0000962  69.8780 290.2316 15.08839702 62257,6917.881,95.438,540.412,539.081,0.0
52846.0,STARLINK-4212,PAYLOAD,2023-07-31 09:24:11,15.08839728,8.81e-05,53.2181,349.1629,60.23,299.8779,8.1089e-05,1.003e-05,0.0,0 STARLINK-4212,1 52846U 22062S   23212.39179675  .00001003  00000-0  81089-4 0  9998,2 52846  53.2181 349.1629 0000881  60.2300 299.8779 15.08839728 62515,6917.881,95.438,540.356,539.137,0.0
52846.0,STARLINK-4212,PAYLOAD,2023-08-01 15:36:30,15.08836972,0.0001317,53.218,343.5124,97.104,263.0102,0.00017205,2.451e-05,0.0,0 STARLINK-4212,1 52846U 22062S   23213.65035522  .00002451  00000-0  17205-3 0  9996,2 52846  53.2180 343.5124 0001317  97.1040 263.0102 15.08836972 62709,6917.89,95.438,540.666,538.844,0.0
52846.0,STARLINK-4212,PAYLOAD,2023-08-02 09:05:45,15.08824718,0.0001018,53.2184,340.2403,84.6364,275.4744,0.00019615,2.834e-05,0.0,0 STARLINK-4212,1 52846U 22062S   23214.37900094  .00002834  00000-0  19615-3 0  9993,2 52846  53.2184 340.2403 0001018  84.6364 275.4744 15.08824718 62811,6917.927,95.439,540.496,539.088,0.0
52846.0,STARLINK-4212,PAYLOAD,2023-08-02 15:27:17,15.08843539,9.7e-05,53.2181,339.0511,95.5459,264.5643,0.0001445,2.013e-05,0.0,0 STARLINK-4212,1 52846U 22062S   23214.64395094  .00002013  00000-0  14450-3 0  9992,2 52846  53.2181 339.0511 0000970  95.5459 264.5643 15.08843539 62859,6917.87,95.437,540.406,539.064,0.0
52846.0,STARLINK-4212,PAYLOAD,2023-08-03 07:21:09,15.08841244,0.0001041,53.2186,336.0795,86.3852,273.726,6.9066e-05,8.12e-06,0.0,0 STARLINK-4212,1 52846U 22062S   23215.30635530  .00000812  00000-0  69066-4 0  9997,2 52846  53.2186 336.0795 0001041  86.3852 273.7260 15.08841244 62959,6917.877,95.437,540.462,539.021,0.0
52846.0,STARLINK-4212,PAYLOAD,2023-08-04 15:08:52,15.08839812,0.000101,53.2172,330.1324,103.783,256.3274,2.7509e-05,1.5e-06,0.0,0 STARLINK-4212,1 52846U 22062S   23216.63116057  .00000150  00000-0  27509-4 0  9993,2 52846  53.2172 330.1324 0001010 103.7830 256.3274 15.08839812 63156,6917.881,95.438,540.445,539.047,0.0
52846.0,STARLINK-4212,PAYLOAD,2023-08-05 14:59:37,15.08855963,0.0001081,53.2181,325.6703,69.6385,290.4724,0.00025339,3.749e-05,0.0,0 STARLINK-4212,1 52846U 22062S   23217.62474510  .00003749  00000-0  25339-3 0  9999,2 52846  53.2181 325.6703 0001081  69.6385 290.4724 15.08855963 63300,6917.832,95.437,540.444,538.949,0.0
52846.0,STARLINK-4212,PAYLOAD,2023-08-06 00:31:57,15.08838153,0.0001035,53.2176,323.8877,85.1222,274.9888,0.00011442,1.534e-05,0.0,0 STARLINK-4212,1 52846U 22062S   23218.02219901  .00001534  00000-0  11442-3 0  9995,2 52846  53.2176 323.8877 0001035  85.1222 274.9888 15.08838153 63364,6917.886,95.438,540.467,539.035,0.0
52846.0,STARLINK-4212,PAYLOAD,2023-08-06 10:04:18,15.08819609,9.01e-05,53.2175,322.1033,95.2844,264.8251,-9.2129e-05,-1.753e-05,0.0,0 STARLINK-4212,1 52846U 22062S   23218.41965879 -.00001753  00000-0 -92129-4 0  9997,2 52846  53.2175 322.1033 0000901  95.2844 264.8251 15.08819609 63426,6917.943,95.439,540.431,539.184,0.0
52846.0,STARLINK-4212,PAYLOAD,2023-08-06 16:25:50,15.08825281,0.0001067,53.2176,320.9103,101.6895,258.4217,-0.00012514,-2.278e-05,0.0,0 STARLINK-4212,1 52846U 22062S   23218.68461060 -.00002278  00000-0 -12514-3 0  9991,2 52846  53.2176 320.9103 0001067 101.6895 258.4217 15.08825281 63461,6917.925,95.438,540.529,539.052,0.0
52846.0,STARLINK-4212,PAYLOAD,2023-08-07 09:55:04,15.08842851,8.1e-05,53.2184,317.6414,79.595,280.5134,1.7875e-05,-3e-08,0.0,0 STARLINK-4212,1 52846U 22062S   23219.41324734 -.00000003  00000-0  17875-4 0  9998,2 52846  53.2184 317.6414 0000810  79.5950 280.5134 15.08842851 63576,6917.872,95.437,540.297,539.176,0.0
52846.0,STARLINK-4212,PAYLOAD,2023-08-07 13:05:50,15.08849766,9.86e-05,53.2176,317.0451,108.2175,251.8925,0.00010938,1.454e-05,0.0,0 STARLINK-4212,1 52846U 22062S   23219.54572274  .00001454  00000-0  10938-3 0  9998,2 52846  53.2176 317.0451 0000986 108.2175 251.8925 15.08849766 63598,6917.851,95.437,540.398,539.033,0.0
52846.0,STARLINK-4212,PAYLOAD,2023-08-08 09:45:51,15.088482,9.7e-05,53.217,313.1793,109.3857,250.724,0.00047848,7.337e-05,0.0,0 STARLINK-4212,1 52846U 22062S   23220.40684769  .00007337  00000-0  47848-3 0  9994,2 52846  53.2170 313.1793 0000970 109.3857 250.7240 15.08848200 63725,6917.855,95.437,540.391,539.049,0.0
52846.0,STARLINK-4212,PAYLOAD,2023-08-09 09:36:38,15.08841208,8.26e-05,53.2167,308.7185,95.9513,264.1573,2.0262e-05,3.5e-07,0.0,0 STARLINK-4212,1 52846U 22062S   23221.40044807  .00000035  00000-0  20262-4 0  9998,2 52846  53.2167 308.7185 0000826  95.9513 264.1573 15.08841208 63870,6917.877,95.437,540.313,539.17,0.0
52846.0,STARLINK-4212,PAYLOAD,2023-08-10 12:38:11,15.08849407,8.73e-05,53.2167,303.6657,89.6395,270.4698,9.5516e-05,1.233e-05,0.0,0 STARLINK-4212,1 52846U 22062S   23222.52652355  .00001233  00000-0  95516-4 0  9990,2 52846  53.2167 303.6657 0000873  89.6395 270.4698 15.08849407 64045,6917.852,95.437,540.321,539.113,0.0
52846.0,STARLINK-4212,PAYLOAD,2023-08-10 22:10:30,15.08841935,8.61e-05,53.2166,301.8821,92.9284,267.1807,6.4831e-05,7.44e-06,0.0,0 STARLINK-4212,1 52846U 22062S   23222.92396667  .00000744  00000-0  64831-4 0  9997,2 52846  53.2166 301.8821 0000861  92.9284 267.1807 15.08841935 64108,6917.874,95.437,540.335,539.144,0.0
52846.0,STARLINK-4212,PAYLOAD,2023-08-12 10:44:23,15.08836443,0.0001234,53.2177,295.0423,105.2376,254.8752,0.00014285,1.986e-05,0.0,0 STARLINK-4212,1 52846U 22062S   23224.44749054  .00001986  00000-0  14285-3 0  9994,2 52846  53.2177 295.0423 0001234 105.2376 254.8752 15.08836443 64332,6917.891,95.438,540.61,538.903,0.0
52846.0,STARLINK-4212,PAYLOAD,2023-08-13 12:10:33,15.08840151,9.96e-05,53.2168,290.2853,84.084,276.0265,7.1062e-05,8.43e-06,0.0,0 STARLINK-4212,1 52846U 22062S   23225.50733045  .00000843  00000-0  71062-4 0  9993,2 52846  53.2168 290.2853 0000996  84.0840 276.0265 15.08840151 64493,6917.88,95.438,540.434,539.056,0.0
52846.0,STARLINK-4212,PAYLOAD,2023-08-14 15:12:06,15.08848591,9.97e-05,53.2169,285.2298,78.936,281.1744,0.00014278,1.986e-05,0.0,0 STARLINK-4212,1 52846U 22062S   23226.63340538  .00001986  00000-0  14278-3 0  9993,2 52846  53.2169 285.2298 0000997  78.9360 281.1744 15.08848591 64665,6917.854,95.437,540.409,539.029,0.0
52846.0,STARLINK-4212,PAYLOAD,2023-08-14 21:33:39,15.08842538,0.0001145,53.2162,284.0389,80.4064,279.7058,6.576e-05,7.59e-06,0.0,0 STARLINK-4212,1 52846U 22062S   23226.89837072  .00000759  00000-0  65760-4 0  9995,2 52846  53.2162 284.0389 0001145  80.4064 279.7058 15.08842538 64702,6917.873,95.437,540.53,538.946,0.0
52846.0,STARLINK-4212,PAYLOAD,2023-08-16 10:07:31,15.08844085,0.0001106,53.2167,277.1976,88.8369,271.275,2.1415e-05,5.3e-07,0.0,0 STARLINK-4212,1 52846U 22062S   23228.42188849  .00000053  00000-0  21415-4 0  9993,2 52846  53.2167 277.1976 0001106  88.8369 271.2750 15.08844085 64939,6917.868,95.437,540.498,538.968,0.0
52846.0,STARLINK-4212,PAYLOAD,2023-08-17 19:30:37,15.08836407,0.0001165,53.2176,270.9523,79.7433,280.3691,-1.8101e-05,-5.76e-06,0.0,0 STARLINK-4212,1 52846U 22062S   23229.81293369 -.00000576  00000-0 -18101-4 0  9991,2 52846  53.2176 270.9523 0001165  79.7433 280.3691 15.08836407 65142,6917.891,95.438,540.562,538.95,0.0
52846.0,STARLINK-4212,PAYLOAD,2023-08-19 11:15:15,15.08843319,0.0001158,53.2166,263.5213,99.9672,260.1451,2.1909e-05,6.1e-07,0.0,0 STARLINK-4212,1 52846U 22062S   23231.46893238  .00000061  00000-0  21909-4 0  9993,2 52846  53.2166 263.5213 0001158  99.9672 260.1451 15.08843319 65393,6917.87,95.437,540.536,538.934,0.0
52846.0,STARLINK-4212,PAYLOAD,2023-08-20 01:33:44,15.08834105,0.0001132,53.2163,260.8451,89.3198,270.7923,6.7433e-05,7.85e-06,0.0,0 STARLINK-4212,1 52846U 22062S   23232.06509833  .00000785  00000-0  67433-4 0  9990,2 52846  53.2163 260.8451 0001132  89.3198 270.7923 15.08834105 65486,6917.898,95.438,540.547,538.98,0.0
52846.0,STARLINK-4212,PAYLOAD,2023-08-21 09:21:26,15.08847175,0.0001147,53.2161,254.8967,88.0902,272.0222,9.324e-05,1.197e-05,0.0,0 STARLINK-4212,1 52846U 22062S   23233.38989113  .00001197  00000-0  93240-4 0  9992,2 52846  53.2161 254.8967 0001147  88.0902 272.0222 15.08847175 65684,6917.858,95.437,540.517,538.93,0.0
